[Satellite]
VERSION=1.1
NAME=STARLINK-5282
NICKNAME=STARLINK-5282
TLE1=1 54169U 22141N   22321.58334491  .00062097  00000+0  44481-3 0  9999
TLE2=2 54169  53.2185  42.2684 0003047  23.6221  94.2350 15.73132566  1303
STATUS=0
